         0.0000000       15.4907422     6797.5720693        0.0001078       51.6471000      230.3316000       87.7819000       51.6471000
      1440.0000000       15.4907780     6797.5615822        0.0001078       51.6471000       47.5878470       82.8319921       51.6471000
      2880.0000000       15.4908139     6797.5510939        0.0001078       51.6471000      224.8781136       77.8820575       51.6471000
      4320.0000000       15.4908497     6797.5406043        0.0001077       51.6471000       42.1591025       72.9320962       51.6471000
      5760.0000000       15.4908856     6797.5301135        0.0001077       51.6471000      219.4762080       67.9821081       51.6471000
      7200.0000000       15.4909215     6797.5196213        0.0001077       51.6471000       36.7820472       63.0320934       51.6471000
      8640.0000000       15.4909573     6797.5091279        0.0001077       51.6471000      214.1258919       58.0820519       51.6471000
     10080.0000000       15.4909932     6797.4986332        0.0001076       51.6471000       31.4566984       53.1319838       51.6471000
     11520.0000000       15.4910291     6797.4881372        0.0001076       51.6471000      208.8271744       48.1818889       51.6471000
     12960.0000000       15.4910650     6797.4776399        0.0001076       51.6471000       26.1830730       43.2317673       51.6471000
     14400.0000000       15.4911009     6797.4671413        0.0001076       51.6471000      203.5800651       38.2816190       51.6471000
     15840.0000000       15.4911368     6797.4566415        0.0001076       51.6471000       20.9611871       33.3314440       51.6471000
     17280.0000000       15.4911727     6797.4461403        0.0001076       51.6471000      198.3845742       28.3812423       51.6471000
     18720.0000000       15.4912086     6797.4356379        0.0001075       51.6471000       15.7910566       23.4310138       51.6471000
     20160.0000000       15.4912445     6797.4251342        0.0001075       51.6471000      193.2407124       18.4807587       51.6471000
     21600.0000000       15.4912804     6797.4146292        0.0001075       51.6471000       10.6726965       13.5304768       51.6471000
     23040.0000000       15.4913163     6797.4041229        0.0001075       51.6471000      188.1484910        8.5801682       51.6471000
     24480.0000000       15.4913522     6797.3936154        0.0001074       51.6471000        5.6061213        3.6298329       51.6471000
     25745.3880480       15.4913838     6797.3843809        0.0001074       51.6471000      226.7884414      359.2797448       51.6471000


 1 25544U 98067A   21001.52861127 +.00001361  00000 0  32564-4 0 0999                                                                                                                                                                                                                                                                                                                                                                                                                                                            
 2 25544  51.6470  87.0736 0001085 176.5108 308.1419 15.4924646826276                                                                                                                                                                                                                                                                                                                                                                                                                                                            

         0.0000000       15.4907470     6797.5706527        0.0001085       51.6470000      308.1419000       87.0736000       51.6470000
      1440.0000000       15.4907833     6797.5600443        0.0001085       51.6470000      125.4195015       82.1236773       51.6470000
      2880.0000000       15.4908196     6797.5494346        0.0001085       51.6470000      302.6919090       77.1737276       51.6470000
      4320.0000000       15.4908558     6797.5388236        0.0001084       51.6470000      119.9943888       72.2237509       51.6470000
      5760.0000000       15.4908921     6797.5282112        0.0001084       51.6470000      297.2941844       67.2737472       51.6470000
      7200.0000000       15.4909284     6797.5175976        0.0001084       51.6470000      114.6214756       62.3237164       51.6470000
      8640.0000000       15.4909647     6797.5069826        0.0001084       51.6470000      291.9487335       57.3736587       51.6470000
     10080.0000000       15.4910010     6797.4963663        0.0001083       51.6470000      109.3007813       52.4235739       51.6470000
     11520.0000000       15.4910373     6797.4857488        0.0001083       51.6470000      286.6555637       47.4734620       51.6470000
     12960.0000000       15.4910736     6797.4751299        0.0001083       51.6470000      104.0323252       42.5233232       51.6470000
     14400.0000000       15.4911099     6797.4645097        0.0001083       51.6470000      281.4146820       37.5731573       51.6470000
     15840.0000000       15.4911462     6797.4538881        0.0001082       51.6470000       98.8161272       32.6229645       51.6470000
     17280.0000000       15.4911825     6797.4432653        0.0001083       51.6470000      276.2260950       27.6727446       51.6470000
     18720.0000000       15.4912188     6797.4326411        0.0001082       51.6470000       93.6522069       22.7224976       51.6470000
     20160.0000000       15.4912551     6797.4220157        0.0001082       51.6470000      271.0898097       17.7722237       51.6470000
     21600.0000000       15.4912915     6797.4113889        0.0001082       51.6470000       88.5405844       12.8219227       51.6470000
     23040.0000000       15.4913278     6797.4007608        0.0001082       51.6470000      266.0058326        7.8715947       51.6470000
     24480.0000000       15.4913641     6797.3901314        0.0001081       51.6470000       83.4812798        2.9212397       51.6470000
     25539.0617232       15.4913909     6797.3823130        0.0001081       51.6470000      225.5051879      359.2804367       51.6470000


 1 25544U 98067A   21001.72438400 +.00001262  00000 0  30783-4 0 0999                                                                                                                                                                                                                                                                                                                                                                                                                                                            
 2 25544  51.6472  86.1057 0001083 176.5883 320.6647 15.4924682326279                                                                                                                                                                                                                                                                                                                                                                                                                                                            

         0.0000000       15.4907507     6797.5695814        0.0001083       51.6472000      320.6647000       86.1057000       51.6472000
      1440.0000000       15.4907850     6797.5595531        0.0001083       51.6472000      137.9464895       81.1557973       51.6472000
      2880.0000000       15.4908193     6797.5495237        0.0001083       51.6472000      315.2184804       76.2058692       51.6472000
      4320.0000000       15.4908535     6797.5394930        0.0001082       51.6472000      132.5239851       71.2559154       51.6472000
      5760.0000000       15.4908878     6797.5294612        0.0001082       51.6472000      309.8216799       66.3059361       51.6472000
      7200.0000000       15.4909221     6797.5194282        0.0001082       51.6472000      127.1508134       61.3559313       51.6472000
      8640.0000000       15.4909564     6797.5093941        0.0001082       51.6472000      304.4743058       56.4059009       51.6472000
     10080.0000000       15.4909907     6797.4993588        0.0001081       51.6472000      121.8269909       51.4558450       51.6472000
     11520.0000000       15.4910250     6797.4893223        0.0001081       51.6472000      299.1763649       46.5057636       51.6472000
     12960.0000000       15.4910594     6797.4792846        0.0001081       51.6472000      116.5525348       41.5556566       51.6472000
     14400.0000000       15.4910937     6797.4692458        0.0001081       51.6472000      293.9278636       36.6055240       51.6472000
     15840.0000000       15.4911280     6797.4592058        0.0001081       51.6472000      111.3274625       31.6553660       51.6472000
     17280.0000000       15.4911623     6797.4491646        0.0001081       51.6472000      288.7288082       26.7051823       51.6472000
     18720.0000000       15.4911966     6797.4391222        0.0001080       51.6472000      106.1517915       21.7549732       51.6472000
     20160.0000000       15.4912310     6797.4290787        0.0001080       51.6472000      283.5792046       16.8047384       51.6472000
     21600.0000000       15.4912653     6797.4190340        0.0001080       51.6472000      101.0255398       11.8544782       51.6472000
     23040.0000000       15.4912997     6797.4089881        0.0001080       51.6472000      278.4790587        6.9041924       51.6472000
     24480.0000000       15.4913340     6797.3989410        0.0001079       51.6472000       95.9487255        1.9538810       51.6472000
     25257.1489920       15.4913525     6797.3935183        0.0001080       51.6472000      226.0444961      359.2822527       51.6472000

